OBJECT_NAME,OBJECT_ID,EPOCH,MEAN_MOTION,ECCENTRICITY,INCLINATION,RA_OF_ASC_NODE,ARG_OF_PERICENTER,MEAN_ANOMALY,EPHEMERIS_TYPE,CLASSIFICATION_TYPE,NORAD_CAT_ID,ELEMENT_SET_NO,REV_AT_EPOCH,BSTAR,MEAN_MOTION_DOT,MEAN_MOTION_DDOT
BEIDOU-3 M26 (C48),2023-207B,2026-06-17T15:12:35.116992,1.86229688,.0003074,55.7554,62.2745,320.8163,39.2030,0,U,58655,999,1683,0,-.55E-6,0
GSAT0225 (GALILEO 29),2024-079A,2026-06-19T10:45:59.205024,1.70473881,.0001534,55.1213,101.0165,302.7941,230.7594,0,U,59598,999,1335,0,-.13E-6,0
GSAT0227 (GALILEO 30),2024-079C,2026-06-19T08:22:51.739680,1.70473950,.0002202,55.1161,101.0181,52.0058,307.9926,0,U,59600,999,1340,0,-.13E-6,0
GSAT0232 (GALILEO 32),2024-167A,2026-06-19T15:35:05.801280,1.70474331,.0006186,55.1842,221.2460,227.8981,171.9033,0,U,61182,999,1092,0,.26E-6,0
GSAT0226 (GALILEO 31),2024-167B,2026-06-18T05:38:48.534144,1.70474256,.0002936,55.1833,221.2920,228.3860,114.8908,0,U,61183,999,1086,0,.32E-6,0
BEIDOU-3 M25 (C47),2024-168B,2026-06-19T08:12:23.350752,1.86229961,.00029991,54.4712,302.1669,300.7676,241.8640,0,U,61186,999,1182,0,-.84E-6,0
BEIDOU-3 M27 (C49),2024-168C,2026-06-19T09:28:24.939840,1.86230036,.00015321,54.4664,302.1480,51.6252,301.4317,0,U,61187,999,929,0,-.84E-6,0
GPS BIII-7  (PRN 01),2024-242A,2026-06-19T01:56:57.413184,2.00571470,.00174383,54.8479,334.1037,4.2476,172.4131,0,U,62339,999,1129,0,-.93E-6,0
QZS-6 (QZSS/PRN 200),2025-023A,2026-06-19T20:53:04.079040,1.00270147,.0001867,0.0601,73.3042,19.6508,218.9098,0,U,62876,999,497,0,-.238E-5,0
COSMOS 2584 (704K),2025-042A,2026-06-16T04:50:31.942176,2.13103849,.00057452,65.0842,72.8354,226.1824,133.8028,0,U,63130,999,1002,0,-.22E-6,0
GPS BIII-8  (PRN 21),2025-116A,2026-06-18T07:51:38.692224,2.00575695,.000857,55.2356,31.0839,338.5670,196.7311,0,U,64202,999,789,0,-.85E-6,0
COSMOS 2596 (708K),2025-206B,2026-06-18T10:24:28.997280,2.13100598,.0010998,64.6338,314.9413,311.7055,76.8578,0,U,65590,999,594,0,-.57E-6,0
GSAT0233 (GALILEO 33),2025-302A,2026-06-18T06:31:06.225312,1.70473916,.00007746,54.3362,102.0997,222.6164,239.4489,0,U,67160,999,314,0,-.12E-6,0
GSAT0234 (GALILEO 34),2025-302C,2026-06-18T02:34:08.632704,1.70473903,.00029627,54.3376,102.1035,311.0872,230.0912,0,U,67162,999,319,0,-.12E-6,0
GPS BIII-9  (PRN 20),2026-017A,2026-06-17T04:44:06.594720,2.00571090,.00220809,55.0883,88.7549,258.4523,101.2987,0,U,67588,999,43161,0,-.21E-6,0
GPS BIII-10 (PRN 13),2026-087A,2026-06-19T09:48:38.619648,2.00570427,.00206003,54.9628,207.6996,106.9834,255.2232,0,U,68791,999,88,0,.31E-6,0
